METEOR-M2-4
1 59051U 24039A   26155.87357094  .00000024  00000+0  30293-4 0  9996
2 59051  98.7006 115.3268 0006562 196.8514 163.2447 14.22428250117513
SONATE-2
1 59112U 24043Q   26154.97364330  .00039146  00000+0  52779-3 0  9999
2 59112  97.5529 304.5700 0006326 241.9322 118.1294 15.57700323125834
GRBBeta
1 60237U 24128C   26155.74246985  .00004952  00000+0  34080-3 0  9996
2 60237  61.9904 259.9266 0042354 132.1755 228.2947 15.06546882104396
Curium One
1 60242U 24128H   26155.74067412  .00009406  00000+0  54094-3 0  9994
2 60242  61.9788 249.8530 0041552 128.1960 232.2890 15.12335101104575
ROBUSTA-3A
1 60243U 24128J   26154.83857688  .00009406  00000+0  55287-3 0  9991
2 60243  61.9869 255.4438 0043220 125.2822 235.2328 15.11490826104401
CatSat
1 60246U 24125J   26154.65070750  .00056678  00000+0  77347-3 0  9992
2 60246  97.2095   6.9905 0021581 228.0597 131.8820 15.57035250105283
ARTIC WX
1 60543U 24149CD  26155.12376351  .00001068  00000+0  11685-3 0  9993
2 60543  97.6803 225.9623 0003261 129.1827 230.9681 14.89809031 97350
ARCTICSAT 1
1 61762U 24199AD  26155.04359446  .00647060  19277-3  12212-2 0  9993
2 61762  97.2861  38.2010 0005603 197.5172 162.5915 16.00815121136012
HYPERVIEW-1G (RS66S)
1 61772U 24199AP  26155.73086128  .00115729  00000+0  85499-3 0  9994
2 61772  97.2892  34.8492 0002185 319.5385  40.5716 15.72624267132711
AO-123
1 61781U 24199AY  26155.26251198  .00008936  00000+0  26072-3 0  9996
2 61781  97.3011  24.0505 0013740   3.1440 356.9888 15.35480458131947
SAMSAT-IONOSPHERE
1 61784U 24199BB  26155.27045632  .00050265  00000+0  70806-3 0  9990
2 61784  97.2959  30.8641 0006894 341.8911  18.2098 15.56459822135559
LASARsat
1 62391U 24247Q   26154.92379714  .00036882  00000+0  75515-3 0  9992
2 62391  44.9754 336.7002 0008047 258.6055 101.3931 15.45494859 81266
CROCUBE
1 62394U 24247T   26150.99870369  .00044257  00000+0  86081-3 0  9995
2 62394  44.9730 356.3242 0007341 240.2660 119.7500 15.46917883 80680
JINJUSat 1B
1 63210U 25052A   26155.68116339  .00018500  00000+0  58015-3 0  9997
2 63210  97.4021  52.4231 0005273 119.5972 240.5796 15.33094184 68189
NUSHSAT 1
1 63211U 25052B   26155.67938850  .00023227  00000+0  67502-3 0  9990
2 63211  97.3992  52.9449 0005054 119.3104 240.8645 15.35459375 68224
TEVEL2-4
1 63213U 25052D   26153.24759932  .00019833  00000+0  60334-3 0  9999
2 63213  97.3927  49.6197 0004090 133.0862 227.0724 15.34050425 67822
TEVEL2-5
1 63214U 25052E   26155.68011441  .00020387  00000+0  62137-3 0  9995
2 63214  97.3911  52.0060 0004070 127.8276 232.3335 15.33985737 68191
TEVEL2-6
1 63215U 25052F   26154.64839894  .00020133  00000+0  61519-3 0  9993
2 63215  97.3918  50.9581 0004181 130.1242 230.0368 15.33906822 68039
TEVEL2-1
1 63217U 25052H   26153.69393788  .00019888  00000+0  61840-3 0  9998
2 63217  97.3886  49.6443 0003899 141.0246 219.1278 15.33355434 67873
TEVEL2-3
1 63218U 25052J   26154.21113612  .00019661  00000+0  61001-3 0  9992
2 63218  97.3892  50.1814 0003877 141.5958 218.5561 15.33427572 67951
TEVEL2-2
1 63219U 25052K   26154.60793555  .00020300  00000+0  63028-3 0  9999
2 63219  97.3889  50.5598 0003812 141.3409 218.8107 15.33398099 68017
TEVEL2-9
1 63237U 25052AD  26155.67873848  .00017126  00000+0  56461-3 0  9996
2 63237  97.3945  51.0324 0006594 167.3372 192.8036 15.31497239 68117
TEVEL2-7
1 63238U 25052AE  26154.60632626  .00017541  00000+0  58397-3 0  9997
2 63238  97.3955  49.8841 0006417 171.2563 188.8791 15.31176236 67942
TEVEL2-8
1 63239U 25052AF  26154.94119385  .00017135  00000+0  57066-3 0  9998
2 63239  97.3952  50.1954 0006473 170.8239 189.3121 15.31169698 67999
PARUS-T2
1 64560U 25135AJ  26155.09326878  .00004546  00000+0  41552-3 0  9997
2 64560  97.7728 269.8828 0000853  72.0410 288.0904 14.95509952 51956
Geoscan-1
1 64880U 25155E   26155.23970553  .00012326  00000+0  42044-3 0  9997
2 64880  97.4552 123.8816 0006509 208.2464 151.8425 15.30473358 78791
239Alferov
1 64881U 25155F   26155.29279181  .00014937  00000+0  47663-3 0  9995
2 64881  97.4554 124.4538 0006130 204.3562 155.7391 15.32580850 78836
Geoscan-2
1 64890U 25155Q   26155.23568489  .00011934  00000+0  40377-3 0  9990
2 64890  97.4551 124.0250 0006394 191.9436 168.1654 15.30745000 78808
Geoscan-4
1 64892U 25155S   26155.72685012  .00015978  00000+0  50217-3 0  9994
2 64892  97.4550 125.0686 0004930 206.7312 153.3677 15.33058642 78910
Geoscan-3
1 64893U 25155T   26155.74338405  .00020088  00000+0  59371-3 0  9996
2 64893  97.4538 125.4799 0004797 203.6130 156.4893 15.34961771 78945
SPIRONE
1 66657U 25274H   26155.05647992  .00002114  00000+0  20596-3 0  9993
2 66657  97.7483  84.5358 0013495  61.9371 298.3212 14.93487417 28265
K-HERO
1 66660U 25274L   26154.32797628  .00002230  00000+0  21467-3 0  9995
2 66660  97.7488  83.9690 0015390  67.4158 292.8689 14.93903672 28168
SNUGLITE-III DURI
1 66661U 25274M   26155.58872358  .00001878  00000+0  18134-3 0  9993
2 66661  97.7484  85.2328 0015973  64.2020 296.0846 14.93956633 28355
GALAPAGOS
1 67279U 25313AH  26155.45872547  .00008172  00000+0  35287-3 0  9991
2 67279  97.3925 230.2707 0015240  53.3766 306.8870 15.22655938 24016
Lobachevsky
1 67282U 25313AL  26155.66663880  .00006093  00000+0  26235-3 0  9999
2 67282  97.3925 230.5914 0011601  49.8330 310.3920 15.22907609 24052
SAKHACUBE-CHOLBON
1 67290U 25313AU  26154.18192812  .00010577  00000+0  43076-3 0  9990
2 67290  97.3924 229.3926 0010172  52.3667 307.8492 15.24621972 23842
RS95S (QMR-KWT-2)
1 67291U 25313AV  26155.16619895  .00016254  00000+0  63454-3 0  9995
2 67291  97.3930 230.5150 0009516  48.8222 311.3836 15.25939873 24004
KNACKSAT-2
1 67683U 98067XZ  26153.80264404  .00045408  00000+0  58253-3 0  9991
2 67683  51.6300   6.7601 0010958 153.2067 206.9494 15.58609395 18031
Ten-Koh2
1 68261U 25241B   26153.84997429  .00006883  00000+0  29609-3 0  9999
2 68261  51.6660  27.8529 0006534 101.1658 259.0055 15.23719437 12722
JACK-002
1 68417U 26067B   26155.12092779  .00007221  00000+0  34601-3 0  9991
2 68417  97.4567 113.8754 0001764  27.3197 332.8130 15.19221851  9961
DISCO 2
1 68431U 26067R   26155.73210874  .00008768  00000+0  42354-3 0  9993
2 68431  97.4600 114.4682 0003870  65.1833 294.9803 15.18875510 10052
HADES-SA (SpinnyONE)
1 68446U 26067AG  26153.33220636  .00018852  00000+0  91402-3 0  9993
2 68446  97.4412 111.8588 0009424 119.3546 240.8630 15.18523368  9674
PARUS-6U1
1 68456U 26067AS  26155.13190689  .00005685  00000+0  28781-3 0  9998
2 68456  97.4553 113.6985 0007643 105.1613 255.0466 15.17371761  9954
SAL-E
1 68458U 26067AU  26155.12919632  .00008056  00000+0  40412-3 0  9996
2 68458  97.4479 113.6404 0007870 112.3057 247.9012 15.17561784  9956
FSI-SAT 2
1 68792U 26088A   26153.34376270  .00004963  00000+0  33735-3 0  9990
2 68792  97.5061 302.9786 0015365 152.9612 207.2419 15.06706036  6053
OrigamiSat 2
1 68795U 26088D   26154.03393240  .00004950  00000+0  32153-3 0  9995
2 68795  97.5061 303.7468 0016403 126.4469 233.8274 15.08375608  6167
ARICA 2
1 68796U 26088E   26155.02644113  .00005617  00000+0  36479-3 0  9990
2 68796  97.5055 304.7138 0016935 121.8076 238.4804 15.08313250  6311
WASEDA-SAT-ZERO-II
1 68797U 26088F   26152.37045560  .00007830  00000+0  50514-3 0  9992
2 68797  97.5037 302.1246 0016669 130.5005 229.7679 15.08438851  5910
MANGARO-II-Piscus
1 68798U 26088G   26153.29130287  .00005214  00000+0  33523-3 0  9991
2 68798  97.5055 303.0466 0020297 130.0536 230.2477 15.08665251  6056
Delfi-N3xt
1 39428U 13066N   26155.66193727  .00007558  00000-0  66179-3 0  9999
2 39428  97.8344  75.9859 0072712 247.8716 111.4775 14.94953338672752
IO-86
1 40931U          25360.30710720  .00000000  00000-0  12800-3 0    00
2 40931   6.0006 332.5373 0012733 338.8432   8.1437 14.79075515    01
LILIUM-4
1 71922C 26067AC  26089.50133053 -.00014632  00000 0 -74472-3 0    04
2 71922  97.4497  49.1617 0004341   5.9603 355.7042 15.16896692    16
TRANSIT 5B-5
1 00965U 64083D   26140.22132175  .00000058  00000-0  68520-4 0  9995
2 00965  90.0785 202.8139 0041495   2.6876  57.4259 13.57009955 39826
PARUS-T1
1 98707U 25009N   25063.20000000  .00000000  00000-0  00000-0 0    08
2 98707  97.4430 144.9801 0003811 149.1702 136.3402 15.16239457    06
T.MicroSat-1
1 98515U 25276Y   25347.12519372 +.00009703 +00000+0 +47621-3 0 00218
2 98515  97.4377  58.8963 0002080  99.7173 260.4296 15.18293117002180
ARICA-2
1 98329U 27001A   26113.71443610  .00000000  00000-0  29916-3 0    03
2 98329  97.5133 264.2063 0010953 206.3608 281.8662 15.08387874    01
CORIOLIS
1 27640U 03001A   26156.49997157  .00000111  00000+0  72698-4 0  9992
2 27640  98.7127 163.5632 0012889 244.6882 115.2959 14.19941630212569
